ONEWEB-0551             
1 56053U 23043H   23271.60580406  .00000100  00000+0  23102-3 0  9996
2 56053  87.8944  96.8557 0001900  79.3777 280.7567 13.15547552 25898
ONEWEB-0552             
1 56054U 23043J   23271.84267884 -.00000013  00000+0 -63948-4 0  9993
2 56054  87.9182  81.5714 0002199  94.2090 265.9295 13.21826511 27139
ONEWEB-0553             
1 56055U 23043K   23272.58334491 -.01449293  00000+0 -27342+0 0  9996
2 56055  87.0270  70.3550 0003905  74.5150  48.6753 14.68223780 28932
ONEWEB-0554             
1 56056U 23043L   23272.25001157 -.01489327  00000+0 -28880+0 0  9991
2 56056  87.0224  70.3452 0001571 138.3684 294.2463 14.67127387 28887
ONEWEB-0555             
1 56057U 23043M   23271.91668981 -.01495635  00000+0 -27155+0 0  9991
2 56057  87.0099  70.5191 0003071 127.0426 227.9780 14.70025427  5578
ONEWEB-0557             
1 56058U 23043N   23272.25001157 -.01483769  00000+0 -29147+0 0  9994
2 56058  87.0234  70.3381 0002507 105.1048  34.2696 14.66535221 28886
ONEWEB-0558             
1 56059U 23043P   23271.83638281  .00000324  00000+0  75375-3 0  9999
2 56059  87.9173  81.5502 0002238  77.2061 282.9323 13.21823913 27147
ONEWEB-0559             
1 56060U 23043Q   23271.89948125  .00000069  00000+0  13561-3 0  9993
2 56060  87.9183  81.5375 0002503  88.8450 271.2970 13.21827103 28070
ONEWEB-0566             
1 56061U 23043R   23271.89311443  .00000014  00000+0  16137-5 0  9995
2 56061  87.9176  81.5417 0002326  74.9024 285.2367 13.21818776 28055
ONEWEB-0568             
1 56062U 23043S   23272.25001157 -.01449128  00000+0 -25880+0 0  9990
2 56062  87.0162  70.5291 0003386 120.2929 137.8707 14.70628268 28876
ONEWEB-0574             
1 56063U 23043T   23271.88685354  .00000286  00000+0  66056-3 0  9995
2 56063  87.9172  81.5387 0001950  93.1256 267.0101 13.21822567 27181
ONEWEB-0575             
1 56064U 23043U   23272.58334491 -.01586114  00000+0 -29081+0 0  9992
2 56064  87.0194  70.4102 0002616  88.1315  85.7681 14.69234564 28927
ONEWEB-0576             
1 56065U 23043V   23272.58334491 -.01560487  00000+0 -29332+0 0  9997
2 56065  87.0267  70.3315 0003632 101.1337 162.6834 14.68080594 28929
ONEWEB-0577             
1 56066U 23043W   23272.58334491 -.01579172  00000+0 -28198+0 0  9998
2 56066  87.0154  70.4861 0002122 148.3737 154.1427 14.70379731 28934
ONEWEB-0578             
1 56067U 23043X   23272.47978998  .00000087  00000+0  18006-3 0  9995
2 56067  87.9173  81.4147 0001546  92.2153 267.9158 13.21824073 28137
ONEWEB-0579             
1 56068U 23043Y   23271.86581899 -.00000029  00000+0 -10225-3 0  9991
2 56068  87.9175  81.5410 0002267  90.6186 269.5208 13.21822122 28062
ONEWEB-0581             
1 56069U 23043Z   23272.25001157 -.01458416  00000+0 -27101+0 0  9995
2 56069  87.0239  70.4857 0004535  92.3371 166.7457 14.68906704 28876
ONEWEB-0609             
1 56070U 23043AA  23272.54804345 -.00000082  00000+0 -25183-3 0  9992
2 56070  87.8916  96.6749 0001641  84.5100 275.6217 13.15549962 26968
ONEWEB-0613             
1 56071U 23043AB  23271.55508177 -.00000029  00000+0 -11121-3 0  9995
2 56071  87.8941  96.8427 0002110  84.1788 275.9583 13.15546226 25926
ONEWEB-0630             
1 56072U 23043AC  23271.93114350 -.00000119  00000+0 -35062-3 0  9994
2 56072  87.8938  96.7679 0002065  77.2583 282.8778 13.15546190 26874
ONEWEB-0632             
1 56073U 23043AD  23271.54663106 -.00000107  00000+0 -31760-3 0  9998
2 56073  87.8943  96.8594 0002290  99.6454 260.4935 13.15546087 25919
ONEWEB-0633             
1 56074U 23043AE  23271.54243205 -.00000075  00000+0 -23399-3 0  9996
2 56074  87.8934  96.8565 0002265  71.9536 288.1841 13.15546344 26802
ONEWEB-0634             
1 56075U 23043AF  23272.51312613  .00007953  00000+0  21084-1 0  9992
2 56075  87.8938  96.6568 0001384  89.5021 270.6268 13.15514264 26921
ONEWEB-0635             
1 56076U 23043AG  23271.89732457  .00000132  00000+0  31700-3 0  9995
2 56076  87.8919  96.8552 0002139  98.1197 262.0177 13.15552148 26876
ONEWEB-0636             
1 56077U 23043AH  23271.88887100  .00000090  00000+0  20571-3 0  9998
2 56077  87.8924  96.8194 0002019  99.9385 260.1973 13.15553251 25946
ONEWEB-0637             
1 56078U 23043AJ  23271.88463848  .00000111  00000+0  26154-3 0  9995
2 56078  87.8949  96.7771 0001867 100.8511 259.2829 13.15552231 25965
ONEWEB-0647             
1 56079U 23043AK  23271.88043734  .00000158  00000+0  38571-3 0  9991
2 56079  87.8945  96.8037 0002218  93.1786 266.9598 13.15553388 25958
ONEWEB-0651             
1 56080U 23043AL  23271.87619038  .00000059  00000+0  12173-3 0  9998
2 56080  87.8942  96.7784 0001757 104.2324 255.9002 13.15550944 25957
ONEWEB-0718             
1 56081U 23043AM  23272.55647933 -.00000036  00000+0 -12948-3 0  9997
2 56081  87.8871  96.6719 0001291  65.9004 294.2261 13.15551997 26961
GSLV R/B                
1 56082U 23043AN  23271.88165328  .00033770  00000+0  67491-3 0  9998
2 56082  87.4075  76.3017 0021874  23.3429 336.8818 15.46390697 28774
ONEWEB-0561             
1 56710U 23068A   23272.45460760  .00000105  00000+0  18412-3 0  9990
2 56710  88.2877 105.6017 0002623  91.5590 268.5852 13.34307834 19050
ONEWEB-0668             
1 56711U 23068B   23272.44054743  .00002944  00000+0  39873-3 0  9997
2 56711  86.7181  86.3265 0017392 112.4951 247.8113 14.78536649 20335
ONEWEB-0676             
1 56712U 23068C   23272.45291495  .00002000  00000+0  27069-3 0  9993
2 56712  86.7137  86.2610 0017021 118.5226 241.7711 14.78382084 20330
ONEWEB-0677             
1 56713U 23068D   23271.55335165  .00000111  00000+0  19534-3 0  9996
2 56713  88.3205 103.6030 0001818 108.4283 251.7056 13.34755335 19114
ONEWEB-0678             
1 56714U 23068E   23272.04465861  .00000072  00000+0  12816-3 0  9991
2 56714  88.0422  96.6420 0001672  91.1424 268.9905 13.28828088 19538
ONEWEB-0679             
1 56715U 23068F   23272.43703908  .00001920  00000+0  25875-3 0  9994
2 56715  86.7176  86.3159 0017200 117.2599 243.0376 14.78536806 20338
ONEWEB-0680             
1 56716U 23068G   23271.91668981 -.00954528  00000+0 -21422+0 0  9991
2 56716  86.8733  86.6636 0016347 124.5978 243.8510 14.59491851  5661
ONEWEB-0681             
1 56717U 23068H   23272.25001157 -.00912925  00000+0 -21520+0 0  9990
2 56717  86.8925  86.6138 0015210 121.6033 299.0062 14.57130570 20286
ONEWEB-0682             
1 56718U 23068J   23272.25001157 -.00013737  00000+0 -30068-1 0  9993
2 56718  88.0475  96.0594 0001755  87.2575 143.2261 13.28745092 19657
ONEWEB-0683             
1 56719U 23068K   23272.33722569  .00003931  00000+0  85598-2 0  9992
2 56719  88.0474  96.0054 0002700 124.7742 235.3651 13.28674417 19649
ONEWEB-0684             
1 56720U 23068L   23272.58334491  .00000013  00000+0  00000+0 0  9994
2 56720  87.8105  96.8410 0001388  37.5027 347.8886 13.17562615 19576
ONEWEB-0686             
1 56721U 23068M   23272.46052813  .00001901  00000+0  25799-3 0  9990
2 56721  86.7148  86.2842 0016451 119.2875 240.9992 14.78248534 20336
ONEWEB-0694             
1 56722U 23068N   23271.51649014  .00001962  00000+0  26667-3 0  9993
2 56722  86.7189  86.7414 0016577 121.0575 239.2275 14.78209719 20190
ONEWEB-0696             
1 56723U 23068P   23272.42966985 -.00006362  00000+0 -13876-1 0  9991
2 56723  88.0339  96.2018 0005597  73.8792 286.2962 13.28989425 19617
ONEWEB-0703             
1 56724U 23068Q   23272.58334491  .00000013  00000+0  00000+0 0  9998
2 56724  87.8502  96.7909 0002682  97.2285  79.3842 13.16575934 19576
ONEWEB-0721             
1 56725U 23068R   23272.45069924  .00002234  00000+0  27003-3 0  9994
2 56725  86.6715  85.3672 0012905 114.8650 245.3916 14.83208150 20388
